<?xml version="1.0" encoding="UTF-8"?>
<ndm xmlns:xsi="http://www.w3.org/2001/XMLSchema-instance" xsi:noNamespaceSchemaLocation="https://sanaregistry.org/r/ndmxml_unqualified/ndmxml-2.0.0-master-2.0.xsd">
<omm id="CCSDS_OMM_VERS" version="2.0">
<header><CREATION_DATE/><ORIGINATOR/></header><body><segment><metadata><OBJECT_NAME>ORBCOMM FM33 [-]</OBJECT_NAME><OBJECT_ID>1999-065D</OBJECT_ID><CENTER_NAME>EARTH</CENTER_NAME><REF_FRAME>TEME</REF_FRAME><TIME_SYSTEM>UTC</TIME_SYSTEM><MEAN_ELEMENT_THEORY>SGP4</MEAN_ELEMENT_THEORY></metadata><data><meanElements><EPOCH>2023-10-19T21:40:30.585792</EPOCH><MEAN_MOTION>14.36873301</MEAN_MOTION><ECCENTRICITY>.0010614</ECCENTRICITY><INCLINATION>45.0308</INCLINATION><RA_OF_ASC_NODE>353.6807</RA_OF_ASC_NODE><ARG_OF_PERICENTER>253.8135</ARG_OF_PERICENTER><MEAN_ANOMALY>276.0485</MEAN_ANOMALY></meanElements><tleParameters><EPHEMERIS_TYPE>0</EPHEMERIS_TYPE><CLASSIFICATION_TYPE>U</CLASSIFICATION_TYPE><NORAD_CAT_ID>25983</NORAD_CAT_ID><ELEMENT_SET_NO>999</ELEMENT_SET_NO><REV_AT_EPOCH>24885</REV_AT_EPOCH><BSTAR>.82859E-3</BSTAR><MEAN_MOTION_DOT>.2333E-4</MEAN_MOTION_DOT><MEAN_MOTION_DDOT>0</MEAN_MOTION_DDOT></tleParameters></data></segment></body></omm>
<omm id="CCSDS_OMM_VERS" version="2.0">
<header><CREATION_DATE/><ORIGINATOR/></header><body><segment><metadata><OBJECT_NAME>ORBCOMM FM36 [-]</OBJECT_NAME><OBJECT_ID>1999-065E</OBJECT_ID><CENTER_NAME>EARTH</CENTER_NAME><REF_FRAME>TEME</REF_FRAME><TIME_SYSTEM>UTC</TIME_SYSTEM><MEAN_ELEMENT_THEORY>SGP4</MEAN_ELEMENT_THEORY></metadata><data><meanElements><EPOCH>2023-10-19T16:15:04.146912</EPOCH><MEAN_MOTION>14.34738884</MEAN_MOTION><ECCENTRICITY>.0004188</ECCENTRICITY><INCLINATION>45.0394</INCLINATION><RA_OF_ASC_NODE>76.7357</RA_OF_ASC_NODE><ARG_OF_PERICENTER>147.3326</ARG_OF_PERICENTER><MEAN_ANOMALY>212.7781</MEAN_ANOMALY></meanElements><tleParameters><EPHEMERIS_TYPE>0</EPHEMERIS_TYPE><CLASSIFICATION_TYPE>U</CLASSIFICATION_TYPE><NORAD_CAT_ID>25984</NORAD_CAT_ID><ELEMENT_SET_NO>999</ELEMENT_SET_NO><REV_AT_EPOCH>24722</REV_AT_EPOCH><BSTAR>.10217E-2</BSTAR><MEAN_MOTION_DOT>.2781E-4</MEAN_MOTION_DOT><MEAN_MOTION_DDOT>0</MEAN_MOTION_DDOT></tleParameters></data></segment></body></omm>
<omm id="CCSDS_OMM_VERS" version="2.0">
<header><CREATION_DATE/><ORIGINATOR/></header><body><segment><metadata><OBJECT_NAME>ORBCOMM FM35 [+]</OBJECT_NAME><OBJECT_ID>1999-065F</OBJECT_ID><CENTER_NAME>EARTH</CENTER_NAME><REF_FRAME>TEME</REF_FRAME><TIME_SYSTEM>UTC</TIME_SYSTEM><MEAN_ELEMENT_THEORY>SGP4</MEAN_ELEMENT_THEORY></metadata><data><meanElements><EPOCH>2023-10-19T16:02:51.103392</EPOCH><MEAN_MOTION>14.34436806</MEAN_MOTION><ECCENTRICITY>.0003564</ECCENTRICITY><INCLINATION>45.0398</INCLINATION><RA_OF_ASC_NODE>78.8710</RA_OF_ASC_NODE><ARG_OF_PERICENTER>232.7134</ARG_OF_PERICENTER><MEAN_ANOMALY>127.3389</MEAN_ANOMALY></meanElements><tleParameters><EPHEMERIS_TYPE>0</EPHEMERIS_TYPE><CLASSIFICATION_TYPE>U</CLASSIFICATION_TYPE><NORAD_CAT_ID>25985</NORAD_CAT_ID><ELEMENT_SET_NO>999</ELEMENT_SET_NO><REV_AT_EPOCH>24762</REV_AT_EPOCH><BSTAR>.76461E-3</BSTAR><MEAN_MOTION_DOT>.2032E-4</MEAN_MOTION_DOT><MEAN_MOTION_DDOT>0</MEAN_MOTION_DDOT></tleParameters></data></segment></body></omm>
<omm id="CCSDS_OMM_VERS" version="2.0">
<header><CREATION_DATE/><ORIGINATOR/></header><body><segment><metadata><OBJECT_NAME>ORBCOMM FM34 [-]</OBJECT_NAME><OBJECT_ID>1999-065G</OBJECT_ID><CENTER_NAME>EARTH</CENTER_NAME><REF_FRAME>TEME</REF_FRAME><TIME_SYSTEM>UTC</TIME_SYSTEM><MEAN_ELEMENT_THEORY>SGP4</MEAN_ELEMENT_THEORY></metadata><data><meanElements><EPOCH>2023-10-19T16:51:42.695136</EPOCH><MEAN_MOTION>14.34384951</MEAN_MOTION><ECCENTRICITY>.0004524</ECCENTRICITY><INCLINATION>45.0391</INCLINATION><RA_OF_ASC_NODE>79.1868</RA_OF_ASC_NODE><ARG_OF_PERICENTER>186.2729</ARG_OF_PERICENTER><MEAN_ANOMALY>173.8062</MEAN_ANOMALY></meanElements><tleParameters><EPHEMERIS_TYPE>0</EPHEMERIS_TYPE><CLASSIFICATION_TYPE>U</CLASSIFICATION_TYPE><NORAD_CAT_ID>25986</NORAD_CAT_ID><ELEMENT_SET_NO>999</ELEMENT_SET_NO><REV_AT_EPOCH>24774</REV_AT_EPOCH><BSTAR>.81762E-3</BSTAR><MEAN_MOTION_DOT>.218E-4</MEAN_MOTION_DOT><MEAN_MOTION_DDOT>0</MEAN_MOTION_DDOT></tleParameters></data></segment></body></omm>
<omm id="CCSDS_OMM_VERS" version="2.0">
<header><CREATION_DATE/><ORIGINATOR/></header><body><segment><metadata><OBJECT_NAME>ORBCOMM FM38 [-]</OBJECT_NAME><OBJECT_ID>2008-031A</OBJECT_ID><CENTER_NAME>EARTH</CENTER_NAME><REF_FRAME>TEME</REF_FRAME><TIME_SYSTEM>UTC</TIME_SYSTEM><MEAN_ELEMENT_THEORY>SGP4</MEAN_ELEMENT_THEORY></metadata><data><meanElements><EPOCH>2023-10-19T18:46:44.386752</EPOCH><MEAN_MOTION>14.76229014</MEAN_MOTION><ECCENTRICITY>.0006138</ECCENTRICITY><INCLINATION>48.4421</INCLINATION><RA_OF_ASC_NODE>312.8151</RA_OF_ASC_NODE><ARG_OF_PERICENTER>319.2519</ARG_OF_PERICENTER><MEAN_ANOMALY>40.7935</MEAN_ANOMALY></meanElements><tleParameters><EPHEMERIS_TYPE>0</EPHEMERIS_TYPE><CLASSIFICATION_TYPE>U</CLASSIFICATION_TYPE><NORAD_CAT_ID>33060</NORAD_CAT_ID><ELEMENT_SET_NO>999</ELEMENT_SET_NO><REV_AT_EPOCH>82501</REV_AT_EPOCH><BSTAR>.55735E-3</BSTAR><MEAN_MOTION_DOT>.3695E-4</MEAN_MOTION_DOT><MEAN_MOTION_DDOT>0</MEAN_MOTION_DDOT></tleParameters></data></segment></body></omm>
<omm id="CCSDS_OMM_VERS" version="2.0">
<header><CREATION_DATE/><ORIGINATOR/></header><body><segment><metadata><OBJECT_NAME>ORBCOMM FM41 [-]</OBJECT_NAME><OBJECT_ID>2008-031B</OBJECT_ID><CENTER_NAME>EARTH</CENTER_NAME><REF_FRAME>TEME</REF_FRAME><TIME_SYSTEM>UTC</TIME_SYSTEM><MEAN_ELEMENT_THEORY>SGP4</MEAN_ELEMENT_THEORY></metadata><data><meanElements><EPOCH>2023-10-19T19:47:37.471200</EPOCH><MEAN_MOTION>14.75994882</MEAN_MOTION><ECCENTRICITY>.0005324</ECCENTRICITY><INCLINATION>48.4456</INCLINATION><RA_OF_ASC_NODE>318.7795</RA_OF_ASC_NODE><ARG_OF_PERICENTER>306.4415</ARG_OF_PERICENTER><MEAN_ANOMALY>223.8918</MEAN_ANOMALY></meanElements><tleParameters><EPHEMERIS_TYPE>0</EPHEMERIS_TYPE><CLASSIFICATION_TYPE>U</CLASSIFICATION_TYPE><NORAD_CAT_ID>33061</NORAD_CAT_ID><ELEMENT_SET_NO>999</ELEMENT_SET_NO><REV_AT_EPOCH>82452</REV_AT_EPOCH><BSTAR>.52628E-3</BSTAR><MEAN_MOTION_DOT>.3458E-4</MEAN_MOTION_DOT><MEAN_MOTION_DDOT>0</MEAN_MOTION_DDOT></tleParameters></data></segment></body></omm>
<omm id="CCSDS_OMM_VERS" version="2.0">
<header><CREATION_DATE/><ORIGINATOR/></header><body><segment><metadata><OBJECT_NAME>ORBCOMM FM29 [-]</OBJECT_NAME><OBJECT_ID>2008-031C</OBJECT_ID><CENTER_NAME>EARTH</CENTER_NAME><REF_FRAME>TEME</REF_FRAME><TIME_SYSTEM>UTC</TIME_SYSTEM><MEAN_ELEMENT_THEORY>SGP4</MEAN_ELEMENT_THEORY></metadata><data><meanElements><EPOCH>2023-10-19T12:37:29.813664</EPOCH><MEAN_MOTION>14.75875469</MEAN_MOTION><ECCENTRICITY>.0007286</ECCENTRICITY><INCLINATION>48.4412</INCLINATION><RA_OF_ASC_NODE>328.1731</RA_OF_ASC_NODE><ARG_OF_PERICENTER>304.1202</ARG_OF_PERICENTER><MEAN_ANOMALY>209.1115</MEAN_ANOMALY></meanElements><tleParameters><EPHEMERIS_TYPE>0</EPHEMERIS_TYPE><CLASSIFICATION_TYPE>U</CLASSIFICATION_TYPE><NORAD_CAT_ID>33062</NORAD_CAT_ID><ELEMENT_SET_NO>999</ELEMENT_SET_NO><REV_AT_EPOCH>82478</REV_AT_EPOCH><BSTAR>.53624E-3</BSTAR><MEAN_MOTION_DOT>.3517E-4</MEAN_MOTION_DOT><MEAN_MOTION_DDOT>0</MEAN_MOTION_DDOT></tleParameters></data></segment></body></omm>
<omm id="CCSDS_OMM_VERS" version="2.0">
<header><CREATION_DATE/><ORIGINATOR/></header><body><segment><metadata><OBJECT_NAME>ORBCOMM FM39 [-]</OBJECT_NAME><OBJECT_ID>2008-031D</OBJECT_ID><CENTER_NAME>EARTH</CENTER_NAME><REF_FRAME>TEME</REF_FRAME><TIME_SYSTEM>UTC</TIME_SYSTEM><MEAN_ELEMENT_THEORY>SGP4</MEAN_ELEMENT_THEORY></metadata><data><meanElements><EPOCH>2023-10-19T21:04:28.031808</EPOCH><MEAN_MOTION>14.75032236</MEAN_MOTION><ECCENTRICITY>.0008225</ECCENTRICITY><INCLINATION>48.4425</INCLINATION><RA_OF_ASC_NODE>345.6161</RA_OF_ASC_NODE><ARG_OF_PERICENTER>283.6818</ARG_OF_PERICENTER><MEAN_ANOMALY>76.3179</MEAN_ANOMALY></meanElements><tleParameters><EPHEMERIS_TYPE>0</EPHEMERIS_TYPE><CLASSIFICATION_TYPE>U</CLASSIFICATION_TYPE><NORAD_CAT_ID>33063</NORAD_CAT_ID><ELEMENT_SET_NO>999</ELEMENT_SET_NO><REV_AT_EPOCH>82458</REV_AT_EPOCH><BSTAR>.51036E-3</BSTAR><MEAN_MOTION_DOT>.327E-4</MEAN_MOTION_DOT><MEAN_MOTION_DDOT>0</MEAN_MOTION_DDOT></tleParameters></data></segment></body></omm>

</ndm>
