ORBCOMM FM33 [-]        
1 25983U 99065D   23292.90313178  .00002333  00000+0  82859-3 0  9991
2 25983  45.0308 353.6807 0010614 253.8135 276.0485 14.36873301248855
ORBCOMM FM36 [-]        
1 25984U 99065E   23292.67713133  .00002781  00000+0  10217-2 0  9996
2 25984  45.0394  76.7357 0004188 147.3326 212.7781 14.34738884247222
ORBCOMM FM35 [+]        
1 25985U 99065F   23292.66864703  .00002032  00000+0  76461-3 0  9999
2 25985  45.0398  78.8710 0003564 232.7134 127.3389 14.34436806247624
ORBCOMM FM34 [-]        
1 25986U 99065G   23292.70257749  .00002180  00000+0  81762-3 0  9995
2 25986  45.0391  79.1868 0004524 186.2729 173.8062 14.34384951247746
ORBCOMM FM38 [-]        
1 33060U 08031A   23292.78245818  .00003695  00000+0  55735-3 0  9995
2 33060  48.4421 312.8151 0006138 319.2519  40.7935 14.76229014825016
ORBCOMM FM41 [-]        
1 33061U 08031B   23292.82473925  .00003458  00000+0  52628-3 0  9998
2 33061  48.4456 318.7795 0005324 306.4415 223.8918 14.75994882824524
ORBCOMM FM29 [-]        
1 33062U 08031C   23292.52603951  .00003517  00000+0  53624-3 0  9993
2 33062  48.4412 328.1731 0007286 304.1202 209.1115 14.75875469824783
ORBCOMM FM39 [-]        
1 33063U 08031D   23292.87810222  .00003270  00000+0  51036-3 0  9994
2 33063  48.4425 345.6161 0008225 283.6818  76.3179 14.75032236824586
